{
  "type": "FeatureCollection",
  "features": [
    {
      "type": "Feature",
      "properties": {
        "norad_id": 35744,
        "name": "IRIDIUM 33 DEB",
        "group": "iridium-33-debris",
        "lat": 52.752902365484864,
        "lon": 137.878990475105,
        "alt_km": 642.1473532534364,
        "timestamp": "2025-12-18T17:50:15.340558+00:00",
        "meta_object_name": "IRIDIUM 33 DEB",
        "meta_object_id": "1997-051RX",
        "meta_epoch": "2025-12-18T04:12:04.449600",
        "meta_mean_motion": 14.71066119,
        "meta_eccentricity": 0.00209704,
        "meta_inclination": 86.329,
        "meta_ra_of_asc_node": 322.9794,
        "meta_arg_of_pericenter": 172.7789,
        "meta_mean_anomaly": 187.3734,
        "meta_ephemeris_type": 0,
        "meta_classification_type": "U",
        "meta_norad_cat_id": 35744,
        "meta_element_set_no": 999,
        "meta_rev_at_epoch": 87411,
        "meta_bstar": 0.00085332597,
        "meta_mean_motion_dot": 5.283e-05,
        "meta_mean_motion_ddot": 0,
        "tle_line1": "1 35744U 97051RX  25352.17505150  .00005283  00000+0  85333-3 0  9998",
        "tle_line2": "2 35744  86.3290 322.9794 0020970 172.7789 187.3734 14.71066119874118"
      },
      "geometry": {
        "type": "Point",
        "coordinates": [
          137.878990475105,
          52.752902365484864
        ]
      }
    },
    {
      "type": "Feature",
      "properties": {
        "norad_id": 35797,
        "name": "IRIDIUM 33 DEB",
        "group": "iridium-33-debris",
        "lat": 68.78412460828723,
        "lon": 137.71457840633138,
        "alt_km": 604.2089211141065,
        "timestamp": "2025-12-18T17:50:15.340568+00:00",
        "meta_object_name": "IRIDIUM 33 DEB",
        "meta_object_id": "1997-051SF",
        "meta_epoch": "2025-12-12T05:51:50.415264",
        "meta_mean_motion": 14.82743783,
        "meta_eccentricity": 0.00133704,
        "meta_inclination": 86.3362,
        "meta_ra_of_asc_node": 330.2007,
        "meta_arg_of_pericenter": 149.5686,
        "meta_mean_anomaly": 210.6315,
        "meta_ephemeris_type": 0,
        "meta_classification_type": "U",
        "meta_norad_cat_id": 35797,
        "meta_element_set_no": 999,
        "meta_rev_at_epoch": 87333,
        "meta_bstar": 0.0026694194,
        "meta_mean_motion_dot": 0.00021655,
        "meta_mean_motion_ddot": 0,
        "tle_line1": "1 35797U 97051SF  25346.24433351  .00021655  00000+0  26694-2 0  9995",
        "tle_line2": "2 35797  86.3362 330.2007 0013370 149.5686 210.6315 14.82743783873338"
      },
      "geometry": {
        "type": "Point",
        "coordinates": [
          137.71457840633138,
          68.78412460828723
        ]
      }
    },
    {
      "type": "Feature",
      "properties": {
        "norad_id": 35806,
        "name": "IRIDIUM 33 DEB",
        "group": "iridium-33-debris",
        "lat": -46.14314742670992,
        "lon": -158.1995466288472,
        "alt_km": 719.5229238411603,
        "timestamp": "2025-12-18T17:50:15.340578+00:00",
        "meta_object_name": "IRIDIUM 33 DEB",
        "meta_object_id": "1997-051SQ",
        "meta_epoch": "2025-12-16T08:46:37.248096",
        "meta_mean_motion": 14.57379748,
        "meta_eccentricity": 0.00158634,
        "meta_inclination": 86.3444,
        "meta_ra_of_asc_node": 19.032,
        "meta_arg_of_pericenter": 64.1996,
        "meta_mean_anomaly": 296.0847,
        "meta_ephemeris_type": 0,
        "meta_classification_type": "U",
        "meta_norad_cat_id": 35806,
        "meta_element_set_no": 999,
        "meta_rev_at_epoch": 86377,
        "meta_bstar": 0.00073764812,
        "meta_mean_motion_dot": 3.369e-05,
        "meta_mean_motion_ddot": 0,
        "tle_line1": "1 35806U 97051SQ  25350.36570889  .00003369  00000+0  73765-3 0  9996",
        "tle_line2": "2 35806  86.3444  19.0320 0015863  64.1996 296.0847 14.57379748863778"
      },
      "geometry": {
        "type": "Point",
        "coordinates": [
          -158.1995466288472,
          -46.14314742670992
        ]
      }
    },
    {
      "type": "Feature",
      "properties": {
        "norad_id": 35809,
        "name": "IRIDIUM 33 DEB",
        "group": "iridium-33-debris",
        "lat": -86.04560339346035,
        "lon": -139.1420582342334,
        "alt_km": 644.8983855392598,
        "timestamp": "2025-12-18T17:50:15.340588+00:00",
        "meta_object_name": "IRIDIUM 33 DEB",
        "meta_object_id": "1997-051ST",
        "meta_epoch": "2025-12-10T16:35:56.421600",
        "meta_mean_motion": 14.75629145,
        "meta_eccentricity": 0.00097103,
        "meta_inclination": 86.329,
        "meta_ra_of_asc_node": 336.2813,
        "meta_arg_of_pericenter": 251.0565,
        "meta_mean_anomaly": 108.9602,
        "meta_ephemeris_type": 0,
        "meta_classification_type": "U",
        "meta_norad_cat_id": 35809,
        "meta_element_set_no": 999,
        "meta_rev_at_epoch": 86777,
        "meta_bstar": 0.0026432017,
        "meta_mean_motion_dot": 0.00018102,
        "meta_mean_motion_ddot": 0,
        "tle_line1": "1 35809U 97051ST  25344.69162525  .00018102  00000+0  26432-2 0  9991",
        "tle_line2": "2 35809  86.3290 336.2813 0009710 251.0565 108.9602 14.75629145867777"
      },
      "geometry": {
        "type": "Point",
        "coordinates": [
          -139.1420582342334,
          -86.04560339346035
        ]
      }
    },
    {
      "type": "Feature",
      "properties": {
        "norad_id": 35846,
        "name": "IRIDIUM 33 DEB",
        "group": "iridium-33-debris",
        "lat": 64.8221348540812,
        "lon": 64.02965109264154,
        "alt_km": 740.7198335028324,
        "timestamp": "2025-12-18T17:50:15.340598+00:00",
        "meta_object_name": "IRIDIUM 33 DEB",
        "meta_object_id": "1997-051SW",
        "meta_epoch": "2025-12-17T14:54:42.096384",
        "meta_mean_motion": 14.4317707,
        "meta_eccentricity": 0.00193544,
        "meta_inclination": 86.3749,
        "meta_ra_of_asc_node": 56.7579,
        "meta_arg_of_pericenter": 154.5428,
        "meta_mean_anomaly": 205.673,
        "meta_ephemeris_type": 0,
        "meta_classification_type": "U",
        "meta_norad_cat_id": 35846,
        "meta_element_set_no": 999,
        "meta_rev_at_epoch": 71399,
        "meta_bstar": 0.00041713484,
        "meta_mean_motion_dot": 1.424e-05,
        "meta_mean_motion_ddot": 0,
        "tle_line1": "1 35846U 97051SW  25351.62132056  .00001424  00000+0  41713-3 0  9998",
        "tle_line2": "2 35846  86.3749  56.7579 0019354 154.5428 205.6730 14.43177070713991"
      },
      "geometry": {
        "type": "Point",
        "coordinates": [
          64.02965109264154,
          64.8221348540812
        ]
      }
    },
    {
      "type": "Feature",
      "properties": {
        "norad_id": 35848,
        "name": "IRIDIUM 33 DEB",
        "group": "iridium-33-debris",
        "lat": -76.05026738004207,
        "lon": -1.300385618602731,
        "alt_km": 643.2271042222155,
        "timestamp": "2025-12-18T17:50:15.340608+00:00",
        "meta_object_name": "IRIDIUM 33 DEB",
        "meta_object_id": "1997-051SY",
        "meta_epoch": "2025-12-16T19:05:07.807200",
        "meta_mean_motion": 14.78723023,
        "meta_eccentricity": 0.00083075,
        "meta_inclination": 86.3897,
        "meta_ra_of_asc_node": 14.3007,
        "meta_arg_of_pericenter": 174.3439,
        "meta_mean_anomaly": 185.7876,
        "meta_ephemeris_type": 0,
        "meta_classification_type": "U",
        "meta_norad_cat_id": 35848,
        "meta_element_set_no": 999,
        "meta_rev_at_epoch": 66750,
        "meta_bstar": 0.0011327955,
        "meta_mean_motion_dot": 8.343e-05,
        "meta_mean_motion_ddot": 0,
        "tle_line1": "1 35848U 97051SY  25350.79522925  .00008343  00000+0  11328-2 0  9990",
        "tle_line2": "2 35848  86.3897  14.3007 0008307 174.3439 185.7876 14.78723023667508"
      },
      "geometry": {
        "type": "Point",
        "coordinates": [
          -1.300385618602731,
          -76.05026738004207
        ]
      }
    },
    {
      "type": "Feature",
      "properties": {
        "norad_id": 35850,
        "name": "IRIDIUM 33 DEB",
        "group": "iridium-33-debris",
        "lat": -72.49021009632733,
        "lon": 173.19135828169064,
        "alt_km": 639.9788392393411,
        "timestamp": "2025-12-18T17:50:15.340619+00:00",
        "meta_object_name": "IRIDIUM 33 DEB",
        "meta_object_id": "1997-051TA",
        "meta_epoch": "2025-12-17T06:35:50.424288",
        "meta_mean_motion": 14.78922738,
        "meta_eccentricity": 0.00098245,
        "meta_inclination": 86.3492,
        "meta_ra_of_asc_node": 342.1832,
        "meta_arg_of_pericenter": 168.4252,
        "meta_mean_anomaly": 191.7196,
        "meta_ephemeris_type": 0,
        "meta_classification_type": "U",
        "meta_norad_cat_id": 35850,
        "meta_element_set_no": 999,
        "meta_rev_at_epoch": 71424,
        "meta_bstar": 0.0012101447,
        "meta_mean_motion_dot": 8.956e-05,
        "meta_mean_motion_ddot": 0,
        "tle_line1": "1 35850U 97051TA  25351.27488917  .00008956  00000+0  12101-2 0  9999",
        "tle_line2": "2 35850  86.3492 342.1832 0009824 168.4252 191.7196 14.78922738714242"
      },
      "geometry": {
        "type": "Point",
        "coordinates": [
          173.19135828169064,
          -72.49021009632733
        ]
      }
    }
  ]
}